[{"OBJECT_NAME":"STARLINK-36166","OBJECT_ID":"2025-298K","EPOCH":"2026-03-09T22:00:01.999584","MEAN_MOTION":14.98341724,"ECCENTRICITY":0.00028696,"INCLINATION":70.001,"RA_OF_ASC_NODE":14.0309,"ARG_OF_PERICENTER":267.1586,"MEAN_ANOMALY":236.0639,"EPHEMERIS_TYPE":0,"CLASSIFICATION_TYPE":"U","NORAD_CAT_ID":67084,"ELEMENT_SET_NO":999,"REV_AT_EPOCH":590,"BSTAR":-0.0015931599,"MEAN_MOTION_DOT":-0.00019056,"MEAN_MOTION_DDOT":0},{"OBJECT_NAME":"TURKSAT-3USAT","OBJECT_ID":"2013-018C","EPOCH":"2026-03-09T19:52:59.932416","MEAN_MOTION":14.95734186,"ECCENTRICITY":0.00131837,"INCLINATION":97.7913,"RA_OF_ASC_NODE":160.1317,"ARG_OF_PERICENTER":74.0986,"MEAN_ANOMALY":286.1687,"EPHEMERIS_TYPE":0,"CLASSIFICATION_TYPE":"U","NORAD_CAT_ID":39152,"ELEMENT_SET_NO":999,"REV_AT_EPOCH":69623,"BSTAR":0.00039789997,"MEAN_MOTION_DOT":4.382e-5,"MEAN_MOTION_DDOT":0}]
